#aV2020  3 18  0  0  0.00000000     288 DD+AD WGS84 FIT  NGA
## 2097 259200.00000000   300.00000000 58926 0.0000000000000
+   32     1  2  3  4  5  6  7  8  9 10 11 12 13 14 15 16 17
+         18 19 20 21 22 23 24 25 26 27 28 29 30 31 32  0  0
+          0  0  0  0  0  0  0  0  0  0  0  0  0  0  0  0  0
+          0  0  0  0  0  0  0  0  0  0  0  0  0  0  0  0  0
+          0  0  0  0  0  0  0  0  0  0  0  0  0  0  0  0  0
++         2  2  2  2  2  2  2  2  2  2  2  2  2  2  2  2  2
++         2  2  2  2  2  2  2  2  2  2  2  2  2  2  2  0  0
++         0  0  0  0  0  0  0  0  0  0  0  0  0  0  0  0  0
++         0  0  0  0  0  0  0  0  0  0  0  0  0  0  0  0  0
++         0  0  0  0  0  0  0  0  0  0  0  0  0  0  0  0  0
%c cc cc ccc ccc cccc cccc cccc cccc ccccc ccccc ccccc ccccc
%c cc cc ccc ccc cccc cccc cccc cccc ccccc ccccc ccccc ccccc
%f  0.0000000  0.000000000  0.00000000000  0.000000000000000
%f  0.0000000  0.000000000  0.00000000000  0.000000000000000
%i    0    0    0    0      0      0      0      0         0
%i    0    0    0    0      0      0      0      0         0
/*      NGA, ST. LOUIS,MO.                                  
/*   EPHEMERIS COMPUTED FROM 2 DAYS OF DATA                 
/*   EPOCHA v5 SMOOTHER                                     
/*   G1762 IERS2010 SATAF SATAPC                            
*  2020  3 18 16 30  0.00000000
P  1  -8458.158125 -13852.218739 -21298.925108   -330.019947                    
V  1  26365.677816  -1958.173976  -8963.996425     -0.125078                    
P  2 -15403.598276  14106.612588  17006.044090   -424.097292                    
V  2 -20469.166821    995.562649 -20205.918095     -0.066735                    
P  3 -12635.302495 -23189.881384  -3346.028222   -121.252144                    
V  3   4445.895485   2048.492753 -31410.867116     -0.099866                    
P  4  -3642.357212 -19449.240827  17713.958607    -63.997832                    
V  4  12078.139409 -19040.224652 -18456.465302     -0.052633                    
P  5  -4061.201085  17778.787196  19107.472486     -9.327939                    
V  5 -15547.472054 -19180.065991  14634.079773     -0.006529                    
P  6 -24228.337568   7187.240038   8301.942609   -233.754973                    
V  6 -10544.100150  -1352.279175 -29755.409379     -0.084485                    
P  7 -23700.705624  -6539.129793  10939.028854   -238.590019                    
V  7  13171.379514  -2898.295575  27068.091386     -0.085349                    
P  8   4772.840268 -24378.035109  -9012.602949    -27.537271                    
V  8   7223.279799  -9344.214678  29270.023647     -0.013746                    
P  9 -12156.567377  -9850.322104  21408.880706   -179.206584                    
V  9  12143.336478 -24495.391869  -4381.990973     -0.081163                    
P 10  18160.879559   3365.328372 -19088.138823   -281.464138                    
V 10  12535.082920  20881.982816  15310.685885     -0.125094                    
P 11   2455.374724 -18704.673313 -19291.337005   -330.443755                    
V 11  21163.017579 -10499.470177  12910.998630      0.107926                    
P 12   9437.408136  24318.302211  -5696.355626    139.298386                    
V 12  -5136.078578  -4999.201536 -30961.214241     -0.042716                    
P 13 -12742.756881  23059.318268  -3104.281573     -4.818929                    
V 13  -4285.468172   1715.993962  31651.635846      0.028889                    
P 14  18005.068751 -16377.837742 -10065.173050    -25.488484                    
V 14  -4512.674076  12842.658636 -28218.210779      0.024897                    
P 15  -1418.791614  24600.754771  -9704.774193   -244.109104                    
V 15  -7628.624501  10044.602365  27831.054176      0.026089                    
P 16   5068.468360 -17413.494909  19024.694371   -136.450929                    
V 16  13045.092071  21041.586752  16049.338857     -0.042794                    
P 17 -17868.870313   7819.351051 -17583.220796    234.153961                    
V 17  10218.183445 -20806.774295 -19225.973512      0.063595                    
P 18  18619.186852  10344.584243  15891.648843    123.036249                    
V 18 -20070.043100   2658.421823  21757.101610      0.148790                    
P 19 -18815.567114  14212.701078 -12518.015226   -184.078952                    
V 19   6779.120009 -13916.580862 -26622.213646      0.051289                    
P 20  21196.850412  12169.482887 -10731.161204    527.863030                    
V 20   6611.336617  12137.082646  26817.803291     -0.000269                    
P 21  23942.806497   4729.460527  10932.169861    -26.103558                    
V 21 -12377.461157   4331.076799  27477.533241      0.051586                    
P 22  -7548.330340 -22863.643671 -11122.619337   -785.450263                    
V 22  11503.652782   9356.821103 -26387.107009      0.000225                    
P 23  -5765.504685 -18716.576529  18133.242418   -128.802512                    
V 23  11276.675425 -19559.638785 -17323.478975      0.027056                    
P 24   6791.539338  14857.117227 -21182.925926    -10.514546                    
V 24 -26234.199875   3711.702664  -5497.600664     -0.004535                    
P 25  17076.663745  19943.420165   4647.875985     -8.380869                    
V 25   1406.937282   6445.253204 -30975.004113      0.019770                    
P 26  12406.667983  -9274.568140  21539.561852    170.054845                    
V 26  16077.361587  22288.314856    556.234811      0.075389                    
P 27  12356.183813 -23265.089520   1174.155543   -242.039803                    
V 27   1547.064904   2612.607554  32323.623986     -0.107373                    
P 28 -16801.264566  -3225.079136 -19690.775702    731.987656                    
V 28 -11480.840985 -23690.879058  13423.361034     -0.026569                    
P 29   9503.265838  12102.802925  21607.971722    -59.599042                    
V 29 -14211.125355  23497.713827  -6915.623363     -0.093217                    
P 30 -26662.500433    760.939089     -1.856005   -178.279144                    
V 30   -134.078885  -3337.829499  31123.879917     -0.087050                    
P 31  23180.802169  -8266.177385  10527.645990    -30.233556                    
V 31  13349.314303   1721.545754 -27481.576364     -0.024681                    
P 32  17905.405018  -8966.638021 -17303.902753    239.188285                    
V 32  -8011.524124  20766.717859 -19111.796480      0.090489                    
EOF
